FENGYUN 3D              
1 43010U 17072A   26158.28088324 -.00000013  00000+0  15633-4 0  9998
2 43010  99.0128 132.5248 0002661  77.4032 282.7440 14.19736851443588
NOAA 20 (JPSS-1)        
1 43013U 17073A   26158.06274896  .00000075  00000+0  56487-4 0  9998
2 43013  98.7769  97.6155 0000521  39.1550 320.9664 14.19509897443030
GOES 17                 
1 43226U 18022A   26158.22961490 -.00000168  00000+0  00000+0 0  9999
2 43226   0.9111  85.8814 0000673   7.0589 155.8701  1.00272247 30320
SENTINEL-3B             
1 43437U 18039A   26157.95074310  .00000108  00000+0  62742-4 0  9995
2 43437  98.6250 225.6295 0000894  77.0075 283.1205 14.26738808422669
FENGYUN 2H              
1 43491U 18050A   26158.07616823 -.00000117  00000+0  00000+0 0  9998
2 43491   3.0047  79.1903 0001460 126.1926 156.9789  1.00271644 29331
METOP-C                 
1 43689U 18087A   26157.93225177  .00000108  00000+0  69209-4 0  9999
2 43689  98.6647 217.7229 0001375 140.6434 219.4844 14.21509399393370
GEO-KOMPSAT-2A          
1 43823U 18100A   26158.22831601 -.00000329  00000+0  00000+0 0  9998
2 43823   0.0492 134.4021 0002378 308.7219  22.9727  1.00271643 27532
METEOR-M2 2             
1 44387U 19038A   26158.26970916  .00000034  00000+0  34544-4 0  9999
2 44387  98.9148 145.4093 0002335  62.8284 297.3132 14.24363380359880
ARKTIKA-M 1             
1 47719U 21016A   26153.03917935 -.00000200  00000+0  00000+0 0  9993
2 47719  63.2379  59.8266 7283239 269.8643  14.6915  2.00628509 38489
FENGYUN 3E              
1 49008U 21062A   26158.26585513  .00000177  00000+0  10406-3 0  9997
2 49008  98.7496 161.7848 0002702 101.8173 258.3307 14.19904198255177
GOES 18                 
1 51850U 22021A   26158.26931163  .00000111  00000+0  00000+0 0  9990
2 51850   0.0298 153.8147 0000590 342.1501  79.6655  1.00272217  6498
NOAA 21 (JPSS-2)        
1 54234U 22150A   26158.09601991  .00000072  00000+0  54620-4 0  9994
2 54234  98.7058  97.0548 0001069 179.2694 180.8484 14.19563722185113
METEOSAT-12 (MTG-I1)    
1 54743U 22170C   26158.20292329  .00000006  00000+0  00000+0 0  9990
2 54743   0.7267  21.2296 0003473  70.6442 236.3639  1.00271590 12874
TIANMU-1 03             
1 55973U 23039A   26158.28389448  .00016283  00000+0  32404-3 0  9999
2 55973  97.5237 331.8678 0004094 123.6968 236.4672 15.47003014179307
TIANMU-1 04             
1 55974U 23039B   26158.27716498  .00016850  00000+0  32849-3 0  9991
2 55974  97.5174 331.0141 0004715 120.8477 239.3237 15.47590436179318
TIANMU-1 05             
1 55975U 23039C   26158.26418561  .00015726  00000+0  31387-3 0  9998
2 55975  97.5218 331.4662 0003725 138.5994 221.5539 15.46929147179288
TIANMU-1 06             
1 55976U 23039D   26158.27994060  .00016736  00000+0  32737-3 0  9995
2 55976  97.5226 332.1082 0003994 135.0011 225.1563 15.47498281179314
FENGYUN 3G              
1 56232U 23055A   26158.13240929  .00029261  00000+0  44289-3 0  9994
2 56232  49.9934  37.8471 0005503 158.1930 201.9273 15.54363291178445
METEOR-M2 3             
1 57166U 23091A   26158.26174664  .00000000  00000+0  18915-4 0  9995
2 57166  98.6085 213.4427 0003779 182.0913 178.0251 14.24046007153108
TIANMU-1 07             
1 57399U 23101A   26158.22285486  .00007044  00000+0  24739-3 0  9991
2 57399  97.2595 209.1207 0003497 142.2774 217.8713 15.29691769160127
TIANMU-1 08             
1 57400U 23101B   26157.33912880  .00008993  00000+0  31506-3 0  9994
2 57400  97.2582 208.0295 0004986 142.0036 218.1557 15.29687744159984
TIANMU-1 09             
1 57401U 23101C   26158.23854319  .00007091  00000+0  24878-3 0  9999
2 57401  97.2541 208.3290 0003862 149.9996 210.1467 15.29725018160128
TIANMU-1 10             
1 57402U 23101D   26158.20599441  .00007279  00000+0  25546-3 0  9990
2 57402  97.2621 209.3376 0005441 152.8374 207.3152 15.29695658160116
FENGYUN 3F              
1 57490U 23111A   26158.25000307  .00000058  00000+0  47674-4 0  9996
2 57490  98.6837 228.4436 0001574 100.0945 260.0409 14.19937496147458
ARKTIKA-M 2             
1 58584U 23198A   26154.30372208  .00000150  00000+0  00000+0 0  9990
2 58584  63.2209 155.9142 6898549 267.4684  18.7857  2.00591941 18047
TIANMU-1 11             
1 58645U 23205A   26158.28918138  .00006212  00000+0  23760-3 0  9993
2 58645  97.3452 180.0021 0010058  48.9381 311.2725 15.26892486136012
TIANMU-1 12             
1 58646U 23205B   26158.25930412  .00006369  00000+0  24395-3 0  9998
2 58646  97.3441 179.7304 0007932  36.6536 323.5244 15.26854013135995
TIANMU-1 13             
1 58647U 23205C   26158.22499619  .00006521  00000+0  25085-3 0  9992
2 58647  97.3468 179.9678 0007124  18.0378 342.1113 15.26708379135986
TIANMU-1 14             
1 58648U 23205D   26158.27603448  .00006528  00000+0  25074-3 0  9990
2 58648  97.3405 179.2077 0008092  21.2564 338.9010 15.26753370135993
TIANMU-1 19             
1 58660U 23208A   26158.29033494  .00008744  00000+0  29060-3 0  9998
2 58660  97.4492 274.5416 0004666   8.6616 351.4704 15.31424349135818
