OBJECT_NAME,OBJECT_ID,EPOCH,MEAN_MOTION,ECCENTRICITY,INCLINATION,RA_OF_ASC_NODE,ARG_OF_PERICENTER,MEAN_ANOMALY,EPHEMERIS_TYPE,CLASSIFICATION_TYPE,NORAD_CAT_ID,ELEMENT_SET_NO,REV_AT_EPOCH,BSTAR,MEAN_MOTION_DOT,MEAN_MOTION_DDOT
FENGYUN 3D,2017-072A,2026-06-07T06:44:28.311936,14.19736851,.00026615,99.0128,132.5248,77.4032,282.7440,0,U,43010,999,44358,.15632568E-4,-.13E-6,0
NOAA 20 (JPSS-1),2017-073A,2026-06-07T01:30:21.510144,14.19509897,.00005206,98.7769,97.6155,39.1550,320.9664,0,U,43013,999,44303,.56487193E-4,.75E-6,0
GOES 17,2018-022A,2026-06-07T05:30:38.727360,1.00272247,.00006735,0.9111,85.8814,7.0589,155.8701,0,U,43226,999,3032,0,-.168E-5,0
SENTINEL-3B,2018-039A,2026-06-06T22:49:04.204704,14.26738808,.00008941,98.6250,225.6295,77.0075,283.1205,0,U,43437,999,42266,.62742231E-4,.108E-5,0
FENGYUN 2H,2018-050A,2026-06-07T01:49:40.935072,1.00271644,.00014605,3.0047,79.1903,126.1926,156.9789,0,U,43491,999,2933,0,-.117E-5,0
METOP-C,2018-087A,2026-06-06T22:22:26.553792,14.21509399,.00013754,98.6647,217.7229,140.6434,219.4844,0,U,43689,999,39337,.69208802E-4,.108E-5,0
GEO-KOMPSAT-2A,2018-100A,2026-06-07T05:28:46.503264,1.00271643,.00023784,0.0492,134.4021,308.7219,22.9727,0,U,43823,999,2753,0,-.329E-5,0
METEOR-M2 2,2019-038A,2026-06-07T06:28:22.871424,14.24363380,.00023351,98.9148,145.4093,62.8284,297.3132,0,U,44387,999,35988,.34544167E-4,.34E-6,0
ARKTIKA-M 1,2021-016A,2026-06-02T00:56:25.095840,2.00628509,.72832396,63.2379,59.8266,269.8643,14.6915,0,U,47719,999,3848,0,-.2E-5,0
FENGYUN 3E,2021-062A,2026-06-07T06:22:49.883232,14.19904198,.00027022,98.7496,161.7848,101.8173,258.3307,0,U,49008,999,25517,.10406164E-3,.177E-5,0
GOES 18,2022-021A,2026-06-07T06:27:48.524832,1.00272217,.00005906,0.0298,153.8147,342.1501,79.6655,0,U,51850,999,649,0,.111E-5,0
NOAA 21 (JPSS-2),2022-150A,2026-06-07T02:18:16.120224,14.19563722,.00010697,98.7058,97.0548,179.2694,180.8484,0,U,54234,999,18511,.54620053E-4,.72E-6,0
METEOSAT-12 (MTG-I1),2022-170C,2026-06-07T04:52:12.572256,1.00271590,.00034737,0.7267,21.2296,70.6442,236.3639,0,U,54743,999,1287,0,.6E-7,0
TIANMU-1 03,2023-039A,2026-06-07T06:48:48.483072,15.47003014,.00040946,97.5237,331.8678,123.6968,236.4672,0,U,55973,999,17930,.32404242E-3,.16283E-3,0
TIANMU-1 04,2023-039B,2026-06-07T06:39:07.054272,15.47590436,.00047155,97.5174,331.0141,120.8477,239.3237,0,U,55974,999,17931,.32848968E-3,.1685E-3,0
TIANMU-1 05,2023-039C,2026-06-07T06:20:25.636704,15.46929147,.00037258,97.5218,331.4662,138.5994,221.5539,0,U,55975,999,17928,.31386824E-3,.15726E-3,0
TIANMU-1 06,2023-039D,2026-06-07T06:43:06.867840,15.47498281,.00039949,97.5226,332.1082,135.0011,225.1563,0,U,55976,999,17931,.32737446E-3,.16736E-3,0
FENGYUN 3G,2023-055A,2026-06-07T03:10:40.162656,15.54363291,.00055035,49.9934,37.8471,158.1930,201.9273,0,U,56232,999,17844,.4428929E-3,.29261E-3,0
METEOR-M2 3,2023-091A,2026-06-07T06:16:54.909696,14.24046007,.00037795,98.6085,213.4427,182.0913,178.0251,0,U,57166,999,15310,.18915376E-4,0,0
TIANMU-1 07,2023-101A,2026-06-07T05:20:54.659904,15.29691769,.00034973,97.2595,209.1207,142.2774,217.8713,0,U,57399,999,16012,.24739445E-3,.7044E-4,0
TIANMU-1 08,2023-101B,2026-06-06T08:08:20.728320,15.29687744,.00049864,97.2582,208.0295,142.0036,218.1557,0,U,57400,999,15998,.31505615E-3,.8993E-4,0
TIANMU-1 09,2023-101C,2026-06-07T05:43:30.131616,15.29725018,.0003862,97.2541,208.3290,149.9996,210.1467,0,U,57401,999,16012,.24878061E-3,.7091E-4,0
TIANMU-1 10,2023-101D,2026-06-07T04:56:37.917024,15.29695658,.00054414,97.2621,209.3376,152.8374,207.3152,0,U,57402,999,16011,.2554575E-3,.7279E-4,0
FENGYUN 3F,2023-111A,2026-06-07T06:00:00.265248,14.19937496,.00015745,98.6837,228.4436,100.0945,260.0409,0,U,57490,999,14745,.47673982E-4,.58E-6,0
ARKTIKA-M 2,2023-198A,2026-06-03T07:17:21.587712,2.00591941,.68985494,63.2209,155.9142,267.4684,18.7857,0,U,58584,999,1804,0,.15E-5,0
TIANMU-1 11,2023-205A,2026-06-07T06:56:25.271232,15.26892486,.00100587,97.3452,180.0021,48.9381,311.2725,0,U,58645,999,13601,.23760023E-3,.6212E-4,0
TIANMU-1 12,2023-205B,2026-06-07T06:13:23.875968,15.26854013,.00079329,97.3441,179.7304,36.6536,323.5244,0,U,58646,999,13599,.24394857E-3,.6369E-4,0
TIANMU-1 13,2023-205C,2026-06-07T05:23:59.670816,15.26708379,.00071242,97.3468,179.9678,18.0378,342.1113,0,U,58647,999,13598,.25085013E-3,.6521E-4,0
TIANMU-1 14,2023-205D,2026-06-07T06:37:29.379072,15.26753370,.00080925,97.3405,179.2077,21.2564,338.9010,0,U,58648,999,13599,.25073832E-3,.6528E-4,0
TIANMU-1 19,2023-208A,2026-06-07T06:58:04.938816,15.31424349,.00046664,97.4492,274.5416,8.6616,351.4704,0,U,58660,999,13581,.29060052E-3,.8744E-4,0
